0 ZHUHAI-1 02
1 42759U 17034B   23080.55021808  .00011237  00000-0  59154-3 0  9995
2 42759  43.0170 242.2571 0011465 259.1903 212.4745 15.15589813318332
0 XW-2B
1 40911U 15049N   23080.50993977  .00018547  00000-0  73847-3 0  9993
2 40911  97.4938  88.3035 0013701 103.9824  45.4436 15.25209684414987
0 ZHUHAI-1 01
1 42761U 17034D   23080.50134755  .00011861  00000-0  62194-3 0  9990
2 42761  43.0164 241.0973 0012336 259.4702 204.1974 15.15678368318335
0 XW-2F
1 40910U 15049M   23080.47945462  .00032340  00000-0  10371-2 0  9993
2 40910  97.4695  92.5017 0013308  81.8912  75.3777 15.32189532415436
0 XW-2C
1 40906U 15049H   23080.47481038  .00015868  00000-0  65649-3 0  9997
2 40906  97.4968  87.4556 0014715 107.4658  47.0017 15.23940745415029
0 FUNCUBE 1
1 39444U 13066AE  23080.46936506  .00005837  00000-0  66225-3 0  9999
2 39444  97.6625  47.7898 0053221 200.0608 159.8517 14.85668710503205
0 XW-2D
1 40907U 15049J   23080.46179334  .00018779  00000-0  74354-3 0  9997
2 40907  97.4961  87.7669 0013936 102.2047  56.2427 15.25389779415090
0 TEVEL 8
1 50989U 22002F   23080.44690109  .00022918  00000-0  10271-2 0  9998
2 50989  97.4459 148.2527 0009602 173.6128 243.1671 15.21199654 65407
0 XW-2A
1 40903U 15049E   23080.43618387  .00237942  00000-0  92128-3 0  9990
2 40903  97.1270 147.4845 0007052 172.2968 315.6995 15.86584905422520
0 ISS (ZARYA)
1 25544U 98067A   23080.38988954  .00015304  00000-0  28187-3 0  9999
2 25544  51.6415  43.5078 0006133 115.2181 346.9578 15.49345862388179
0 XW-3 (CAS 9)
1 50466U 21131B   23080.34105869  .00000905  00000-0  30901-3 0  9998
2 50466  98.5548 162.1617 0005116  56.8169 303.3509 14.38761470 64727
0 TEVEL 4
1 51063U 22002CH  23080.32207074  .00023011  00000-0  10323-2 0  9997
2 51063  97.4449 148.0947 0009285 175.4463 249.1600 15.21167325 65388
0 OBJECT C
1 54684U 22167C   23080.31490756  .00016887  00000-0  99677-3 0  9994
2 54684  97.5458 218.7143 0013717 275.5673 111.2976 15.11522385 15395
0 LILACSAT 2
1 40908U 15049K   23080.31365091  .00008336  00000-0  40664-3 0  9994
2 40908  97.5261  83.6894 0016011 131.3575 356.4113 15.18448255414459
0 SAUDISAT 1C
1 27607U 02058C   23080.28988479  .00002610  00000-0  37220-3 0  9991
2 27607  64.5559 174.3477 0075985 242.0789 117.2607 14.76975126 89455
0 DIWATA 2B
1 43678U 18084H   23080.27344926  .00002844  00000-0  27882-3 0  9997
2 43678  98.0046 222.5665 0010776  92.5290 267.7172 14.93040501239141
0 TEVEL 7
1 51062U 22002CG  23080.25389487  .00023137  00000-0  10368-2 0  9995
2 51062  97.4448 148.0380 0009378 175.3198 255.4476 15.21201190 65373
0 XW-2E
1 40909U 15049L   23080.25104604  .00032744  00000-0  10315-2 0  9998
2 40909  97.4604  93.0612 0012531  81.1092  48.2632 15.32767650415645
0 TEVEL 1
1 51013U 22002AF  23080.24476661  .00023002  00000-0  10304-2 0  9992
2 51013  97.4441 147.9593 0009444 174.7028 258.1935 15.21215893 65370
0 TEVEL 2
1 51069U 22002CP  23080.23927185  .00023494  00000-0  10511-2 0  9999
2 51069  97.4434 147.9753 0009531 174.5238 258.5870 15.21254755 65371
0 TEVEL 3
1 50988U 22002E   23080.23722064  .00023212  00000-0  10386-2 0  9995
2 50988  97.4434 147.9965 0009372 174.6669 257.4874 15.21252575 65377
0 AO-92
1 43137U 18004AC  23080.19578630  .00038601  00000-0  97824-3 0  9994
2 43137  97.3361 158.8190 0006995 102.6203 257.5825 15.39590284288732
0 NAYIF 1
1 42017U 17008BX  23080.16983201  .00092828  00000-0  13800-2 0  9996
2 42017  97.2253 149.2565 0002050 305.5370  54.5693 15.54845064339690
0 TEVEL 5
1 50998U 22002Q   23080.15598398  .00024150  00000-0  10590-2 0  9997
2 50998  97.4434 148.2088 0010642 170.1725 242.0708 15.21924844 65386
0 TEVEL 6
1 50999U 22002R   23080.15456763  .00024321  00000-0  10664-2 0  9999
2 50999  97.4431 148.2039 0010110 170.6911 241.2381 15.21931453 65384
0 AO-95
1 43770U 18099N   23080.13305759  .00007515  00000-0  62696-3 0  9994
2 43770  97.5849 144.0601 0015387  70.4271 289.8612 14.98764731234416
0 MT-CUBE-2
1 53106U 22080B   23080.11397462 -.00000003  00000-0  00000+0 0  9996
2 53106  70.1803 350.3243 0008309 206.6105 153.4129  6.42557126 16095
0 CSS (TIANHE-1)
1 48274U 21035A   23080.10851009  .00045113  00000-0  48476-3 0  9999
2 48274  41.4747 333.1338 0002267 201.5337 305.0231 15.62949389108050
0 EYESAT A
1 22825U 93061C   23080.06410440  .00000198  00000-0  93952-4 0  9990
2 22825  98.8535 121.4852 0007817 331.7701  28.3056 14.30267855537962
0 NEXUS
1 43937U 19003F   23080.00911772  .00049111  00000-0  10904-2 0  9991
2 43937  97.0995 108.8337 0014058 230.5718 129.4287 15.43449116232403
0 UVSQ-SAT
1 47438U 21006AB  23079.72737156  .00017588  00000-0  78572-3 0  9995
2 47438  97.3967 138.2396 0010790  40.8127 319.3915 15.21351905119183
0 ES'HAIL 2
1 43700U 18090A   23079.71855413  .00000126  00000-0  00000-0 0  9996
2 43700   0.0199 246.2518 0000944 123.9842  92.2246  1.00272123 15794
0 OSCAR 7
1 07530U 74089B   23079.71334325 -.00000035  00000-0  70563-4 0  9996
2 07530 101.9420  65.8127 0011937 232.1583 301.0582 12.53662463212088
0 JAS 2
1 24278U 96046B   23079.68138890  .00000001  00000-0  40282-4 0  9993
2 24278  98.5223  70.3233 0349203 286.5559  69.7500 13.53138828312963
0 AO-91
1 43017U 17073E   23079.67466659  .00011744  00000-0  83587-3 0  9994
2 43017  97.6440 327.5263 0238185   1.6676 358.5279 14.84658553288048
0 BREEZE-KM R/B
1 44909U 19096E   23079.64299626  .00000019  00000-0  26554-4 0  9992
2 44909  82.5218  46.7711 0218222  34.2469 327.2486 12.79719249150835
0 LAPAN A2
1 40931U 15052B   23079.57665251  .00001676  00000-0  14263-3 0  9997
2 40931   6.0003 359.0382 0012557 116.8678 243.2773 14.77107804404235
0 JY1SAT
1 43803U 18099AX  23079.41030739  .00007111  00000-0  58031-3 0  9993
2 43803  97.5857 144.3010 0015620  60.2967 299.9809 14.99636537234387
0 XW-4 (CAS-10)
1 54816U 21035C   23072.25043904  .02330371  77621-5  12756-2 0  9996
2 54816  41.5077   9.4914 0017840 162.4710 197.7314 16.18206266 13316
